OBJECT_NAME,OBJECT_ID,EPOCH,MEAN_MOTION,ECCENTRICITY,INCLINATION,RA_OF_ASC_NODE,ARG_OF_PERICENTER,MEAN_ANOMALY,EPHEMERIS_TYPE,CLASSIFICATION_TYPE,NORAD_CAT_ID,ELEMENT_SET_NO,REV_AT_EPOCH,BSTAR,MEAN_MOTION_DOT,MEAN_MOTION_DDOT
ONEWEB-0572,2023-004M,2026-07-22T21:44:02.924160,13.17648927,.00019381,87.9157,358.7608,91.0262,269.1091,0,U,55151,999,17218,.24624051E-3,.108E-5,0
ONEWEB-0573,2023-004N,2026-07-23T07:23:36.688128,13.18684303,.00027,87.9193,328.2861,90.0949,270.0493,0,U,55152,999,17445,.7909104E-4,.44E-6,0
ONEWEB-0588,2023-004P,2026-07-23T07:13:53.897664,13.18687011,.00019596,87.9196,328.2870,83.9545,276.1811,0,U,55153,999,17445,.17223911E-3,.81E-6,0
ONEWEB-0598,2023-004Q,2026-07-23T00:28:25.804704,13.11416109,.00025202,87.8889,13.9333,94.4078,265.7338,0,U,55154,999,17059,.23242802E-3,.95E-6,0
ONEWEB-0599,2023-004R,2026-07-22T20:48:09.211392,13.17647824,.00019656,87.9153,358.7667,99.9574,260.1779,0,U,55155,999,17218,.17202973E-3,.8E-6,0
ONEWEB-0614,2023-004S,2026-07-23T04:00:50.608224,13.11416040,.00016717,87.8883,13.9116,86.5537,273.5783,0,U,55156,999,17055,.80861467E-3,.299E-5,0
ONEWEB-0616,2023-004T,2026-07-22T21:48:54.053280,13.17648234,.00020983,87.9153,358.7627,120.3501,239.7838,0,U,55157,999,17240,.57070669E-4,.35E-6,0
ONEWEB-0617,2023-004U,2026-07-23T00:04:00.307776,13.11418155,.00017564,87.8897,13.9372,83.0717,277.0611,0,U,55158,999,17055,.14080284E-2,.512E-5,0
ONEWEB-0618,2023-004V,2026-07-23T07:05:58.919712,15.13460761,.00136357,86.9108,162.9734,147.7744,212.4332,0,U,55159,999,18772,.32142305E-3,.579E-4,0
ONEWEB-0619,2023-004W,2026-07-22T08:00:17.030016,13.17648502,.00014273,87.9166,358.8606,96.0871,264.0423,0,U,55160,999,17222,.45676302E-4,.31E-6,0
ONEWEB-0620,2023-004X,2026-07-23T05:26:17.644704,13.11417969,.00020581,87.8889,13.8994,88.7542,271.3822,0,U,55161,999,17055,.15409432E-2,.559E-5,0
ONEWEB-0621,2023-004Y,2026-07-23T04:15:29.558016,13.11414875,.00016076,87.8892,13.9014,86.8339,273.2973,0,U,55162,999,17052,-.43212691E-3,-.14E-5,0
ONEWEB-0622,2023-004Z,2026-07-23T04:22:48.751680,13.11415012,.0001911,87.8896,13.9036,69.4504,290.6829,0,U,55163,999,17051,-.10554459E-2,-.361E-5,0
ONEWEB-0623,2023-004AA,2026-07-22T16:59:44.744064,13.17648638,.00013558,87.9152,358.8120,71.8178,288.3101,0,U,55164,999,17226,.14681249E-3,.7E-6,0
ONEWEB-0624,2023-004AB,2026-07-23T07:37:50.700288,13.12928068,.00017219,87.8978,343.3963,94.7768,265.3557,0,U,55165,999,17281,.23254048E-3,.97E-6,0
ONEWEB-0625,2023-004AC,2026-07-23T03:41:15.032544,13.17648020,.0001773,87.9154,358.7202,99.3318,260.8014,0,U,55166,999,17231,.44241607E-4,.3E-6,0
ONEWEB-0626,2023-004AD,2026-07-22T23:47:59.412768,13.17648643,.00021557,87.9155,358.7518,95.8744,264.2633,0,U,55167,999,17229,.13276346E-3,.64E-6,0
ONEWEB-0627,2023-004AE,2026-07-22T21:41:37.586400,13.17649431,.00014587,87.9158,358.7697,81.9953,278.1344,0,U,55168,999,17228,.34375203E-3,.146E-5,0
ONEWEB-0628,2023-004AF,2026-07-23T07:30:18.759168,13.12438772,.00012568,87.8977,343.4721,88.1557,271.9715,0,U,55169,999,17277,.86976241E-3,.326E-5,0
ONEWEB-0629,2023-004AG,2026-07-23T04:23:46.316544,13.17650141,.00015037,87.9154,358.7100,97.5228,262.6074,0,U,55170,999,17232,.17961648E-3,.83E-6,0
ONEWEB-0631,2023-004AH,2026-07-23T07:04:11.264448,13.18687157,.00022063,87.9203,328.2574,87.9726,272.1659,0,U,55171,999,17443,.78916111E-4,.44E-6,0
ONEWEB-0709,2023-004AJ,2026-07-23T05:11:39.107040,13.11418781,.00027124,87.8890,13.9039,93.2689,266.8750,0,U,55172,999,17059,.48971211E-3,.186E-5,0
ONEWEB-0710,2023-004AK,2026-07-21T23:34:52.099680,13.17648859,.00018048,87.9153,358.9437,88.3322,271.8016,0,U,55173,999,17216,-.4692728E-5,.11E-6,0
ONEWEB-0711,2023-004AL,2026-07-23T00:50:23.707968,13.11416292,.00015758,87.8891,13.9283,68.5099,291.6197,0,U,55174,999,17053,-.13831997E-2,-.478E-5,0
ONEWEB-0713,2023-004AM,2026-07-23T04:56:59.884224,13.11418621,.00016505,87.8896,13.8963,80.4268,279.7046,0,U,55175,999,17054,-.5944643E-3,-.198E-5,0
ONEWEB-0715,2023-004AN,2026-07-23T04:49:40.378656,13.11417886,.00024576,87.8892,13.8979,85.8955,274.2454,0,U,55176,999,17058,-.10962092E-2,-.376E-5,0
ONEWEB-0716,2023-004AP,2026-07-21T16:07:45.270336,13.17649269,.00018321,87.9153,359.0084,100.9471,259.1867,0,U,55177,999,17212,.63113833E-4,.37E-6,0
ONEWEB-0717,2023-004AQ,2026-07-22T20:53:01.164768,13.17647757,.00018524,87.9164,358.7615,77.0935,283.0403,0,U,55178,999,17233,.14063347E-3,.67E-6,0
ONEWEB-0719,2023-004AR,2026-07-22T21:07:35.550912,13.17647925,.0001715,87.9164,358.7395,99.5146,260.6179,0,U,55179,999,17228,.59083458E-4,.36E-6,0
ONEWEB-0530,2023-029A,2026-07-23T03:36:13.475808,13.20770383,.00016777,87.9167,267.2992,88.5156,271.6169,0,U,55796,999,16589,-.11806765E-3,-.35E-6,0
